QIANFAN-9               
1 60387U 24140J   25206.55364767  .00000141  00000+0  19996-3 0  9995
2 60387  88.9850 313.8129 0014777 237.6150 122.3572 13.50954831 48408
QIANFAN-10              
1 60388U 24140K   25206.55779614  .00000132  00000+0  18626-3 0  9996
2 60388  88.9859 313.1471 0013945 212.5861 147.4430 13.50957249 48539
QIANFAN-11              
1 60389U 24140L   25206.44665860  .00000116  00000+0  16197-3 0  9995
2 60389  88.9786 313.8495 0012809 236.8767 123.1156 13.50957277 48171
QIANFAN-12              
1 60390U 24140M   25206.46717688  .00000131  00000+0  18394-3 0  9993
2 60390  88.9829 313.8294 0011441 245.4127 114.5832 13.50957117 48308
QIANFAN-13              
1 60391U 24140N   25206.43839206  .00000129  00000+0  18077-3 0  9997
2 60391  88.9841 313.9150 0011205 248.5204 111.4752 13.50956901 48322
QIANFAN-14              
1 60392U 24140P   25206.46303669  .00000127  00000+0  17762-3 0  9998
2 60392  88.9820 313.8401 0014882 249.6300 110.3253 13.50958037 48338
QIANFAN-15              
1 60393U 24140Q   25206.47138449  .00000128  00000+0  17997-3 0  9993
2 60393  88.9843 313.7625 0011024 232.4311 127.5840 13.50954847 48324
QIANFAN-16              
1 60394U 24140R   25206.45902432  .00000121  00000+0  16831-3 0  9992
2 60394  88.9846 313.8795 0012738 253.5221 106.4531 13.50957143 48239
